{"type": "FeatureCollection", "features": [ {"type": "Feature", "properties": {"norad_id": 38552, "name": "METEOSAT-10 (MSG-3)", "group": "weather", "lat": 1.1817412468547361, "lon": -134.7256252174638, "alt_km": 35784.379569042, "timestamp": "2025-12-09T09:46:47.290374+00:00", "meta": {"OBJECT_NAME": "METEOSAT-10 (MSG-3)", "OBJECT_ID": "2012-035B", "EPOCH": "2025-12-08T22:09:52.294752", "MEAN_MOTION": 1.00273781, "ECCENTRICITY": 8.733e-05, "INCLINATION": 4.2201, "RA_OF_ASC_NODE": 61.7306, "ARG_OF_PERICENTER": 238.4203, "MEAN_ANOMALY": 110.3791, "EPHEMERIS_TYPE": 0, "CLASSIFICATION_TYPE": "U", "NORAD_CAT_ID": 38552, "ELEMENT_SET_NO": 999, "REV_AT_EPOCH": 4894, "BSTAR": 0, "MEAN_MOTION_DOT": -5e-08, "MEAN_MOTION_DDOT": 0}, "tle": {"line1": "1 38552U 12035B   25342.92352193 -.00000005  00000+0  00000+0 0  9998", "line2": "2 38552   4.2201  61.7306 0000873 238.4203 110.3791  1.00273781 48943"}}, "geometry": {"type": "Point", "coordinates": [-134.7256252174638, 1.1817412468547361]}}, {"type": "Feature", "properties": {"norad_id": 38771, "name": "METOP-B", "group": "weather", "lat": -33.562498652407385, "lon": 39.23979235869856, "alt_km": 828.7015486159617, "timestamp": "2025-12-09T09:46:47.290386+00:00", "meta": {"OBJECT_NAME": "METOP-B", "OBJECT_ID": "2012-049A", "EPOCH": "2025-12-09T03:10:54.631200", "MEAN_MOTION": 14.21406209, "ECCENTRICITY": 0.0002761, "INCLINATION": 98.6803, "RA_OF_ASC_NODE": 33.1524, "ARG_OF_PERICENTER": 152.0396, "MEAN_ANOMALY": 208.093, "EPHEMERIS_TYPE": 0, "CLASSIFICATION_TYPE": "U", "NORAD_CAT_ID": 38771, "ELEMENT_SET_NO": 999, "REV_AT_EPOCH": 68626, "BSTAR": 0.00011745, "MEAN_MOTION_DOT": 2.13e-06, "MEAN_MOTION_DDOT": 0}, "tle": {"line1": "1 38771U 12049A   25343.13257675  .00000213  00000+0  11745-3 0  9991", "line2": "2 38771  98.6803  33.1524 0002761 152.0396 208.0930 14.21406209686261"}}, "geometry": {"type": "Point", "coordinates": [39.23979235869856, -33.562498652407385]}}, {"type": "Feature", "properties": {"norad_id": 39216, "name": "INSAT-3D", "group": "weather", "lat": -1.4327882096581122, "lon": -5.34144226009193, "alt_km": 35788.55364574025, "timestamp": "2025-12-09T09:46:47.290399+00:00", "meta": {"OBJECT_NAME": "INSAT-3D", "OBJECT_ID": "2013-038B", "EPOCH": "2025-12-08T22:46:48.758016", "MEAN_MOTION": 1.00271425, "ECCENTRICITY": 0.0001672, "INCLINATION": 1.4352, "RA_OF_ASC_NODE": 85.0274, "ARG_OF_PERICENTER": 162.1102, "MEAN_ANOMALY": 302.0591, "EPHEMERIS_TYPE": 0, "CLASSIFICATION_TYPE": "U", "NORAD_CAT_ID": 39216, "ELEMENT_SET_NO": 999, "REV_AT_EPOCH": 4517, "BSTAR": 0, "MEAN_MOTION_DOT": -3.37e-06, "MEAN_MOTION_DDOT": 0}, "tle": {"line1": "1 39216U 13038B   25342.94917544 -.00000337  00000+0  00000+0 0  9997", "line2": "2 39216   1.4352  85.0274 0001672 162.1102 302.0591  1.00271425 45172"}}, "geometry": {"type": "Point", "coordinates": [-5.34144226009193, -1.4327882096581122]}}, {"type": "Feature", "properties": {"norad_id": 39260, "name": "FENGYUN 3C", "group": "weather", "lat": -75.56775220282894, "lon": -3.341149619721396, "alt_km": 844.7503114905103, "timestamp": "2025-12-09T09:46:47.290410+00:00", "meta": {"OBJECT_NAME": "FENGYUN 3C", "OBJECT_ID": "2013-052A", "EPOCH": "2025-12-09T05:03:38.697120", "MEAN_MOTION": 14.15694499, "ECCENTRICITY": 0.0014082, "INCLINATION": 98.4759, "RA_OF_ASC_NODE": 321.0626, "ARG_OF_PERICENTER": 206.5137, "MEAN_ANOMALY": 153.5319, "EPHEMERIS_TYPE": 0, "CLASSIFICATION_TYPE": "U", "NORAD_CAT_ID": 39260, "ELEMENT_SET_NO": 999, "REV_AT_EPOCH": 63168, "BSTAR": 0.00011897, "MEAN_MOTION_DOT": 1.92e-06, "MEAN_MOTION_DDOT": 0}, "tle": {"line1": "1 39260U 13052A   25343.21086455  .00000192  00000+0  11897-3 0  9999", "line2": "2 39260  98.4759 321.0626 0014082 206.5137 153.5319 14.15694499631686"}}, "geometry": {"type": "Point", "coordinates": [-3.341149619721396, -75.56775220282894]}}, {"type": "Feature", "properties": {"norad_id": 40069, "name": "METEOR-M 2", "group": "weather", "lat": -14.679713110800606, "lon": 138.87690987893026, "alt_km": 822.1991689770039, "timestamp": "2025-12-09T09:46:47.290421+00:00", "meta": {"OBJECT_NAME": "METEOR-M 2", "OBJECT_ID": "2014-037A", "EPOCH": "2025-12-09T05:29:14.307648", "MEAN_MOTION": 14.21383952, "ECCENTRICITY": 0.0004812, "INCLINATION": 98.4898, "RA_OF_ASC_NODE": 320.9474, "ARG_OF_PERICENTER": 221.7904, "MEAN_ANOMALY": 138.2907, "EPHEMERIS_TYPE": 0, "CLASSIFICATION_TYPE": "U", "NORAD_CAT_ID": 40069, "ELEMENT_SET_NO": 999, "REV_AT_EPOCH": 59233, "BSTAR": 0.00014157, "MEAN_MOTION_DOT": 2.67e-06, "MEAN_MOTION_DDOT": 0}, "tle": {"line1": "1 40069U 14037A   25343.22863782  .00000267  00000+0  14157-3 0  9994", "line2": "2 40069  98.4898 320.9474 0004812 221.7904 138.2907 14.21383952592336"}}, "geometry": {"type": "Point", "coordinates": [138.87690987893026, -14.679713110800606]}}, {"type": "Feature", "properties": {"norad_id": 40267, "name": "HIMAWARI-8", "group": "weather", "lat": 0.02167683453232878, "lon": 5.767900525333439, "alt_km": 35784.619093785215, "timestamp": "2025-12-09T09:46:47.290433+00:00", "meta": {"OBJECT_NAME": "HIMAWARI-8", "OBJECT_ID": "2014-060A", "EPOCH": "2025-12-08T22:49:55.959168", "MEAN_MOTION": 1.00270656, "ECCENTRICITY": 0.0001257, "INCLINATION": 0.0331, "RA_OF_ASC_NODE": 221.8407, "ARG_OF_PERICENTER": 74.2923, "MEAN_ANOMALY": 264.9633, "EPHEMERIS_TYPE": 0, "CLASSIFICATION_TYPE": "U", "NORAD_CAT_ID": 40267, "ELEMENT_SET_NO": 999, "REV_AT_EPOCH": 4085, "BSTAR": 0, "MEAN_MOTION_DOT": -2.73e-06, "MEAN_MOTION_DDOT": 0}, "tle": {"line1": "1 40267U 14060A   25342.95134212 -.00000273  00000+0  00000+0 0  9994", "line2": "2 40267   0.0331 221.8407 0001257  74.2923 264.9633  1.00270656 40851"}}, "geometry": {"type": "Point", "coordinates": [5.767900525333439, 0.02167683453232878]}}, {"type": "Feature", "properties": {"norad_id": 40367, "name": "FENGYUN 2G", "group": "weather", "lat": -4.845551217530329, "lon": -35.33654052088956, "alt_km": 35780.51945195798, "timestamp": "2025-12-09T09:46:47.290446+00:00", "meta": {"OBJECT_NAME": "FENGYUN 2G", "OBJECT_ID": "2014-090A", "EPOCH": "2025-12-08T17:30:10.330272", "MEAN_MOTION": 1.00265504, "ECCENTRICITY": 0.0003085, "INCLINATION": 5.1581, "RA_OF_ASC_NODE": 75.1439, "ARG_OF_PERICENTER": 197.6958, "MEAN_ANOMALY": 167.0613, "EPHEMERIS_TYPE": 0, "CLASSIFICATION_TYPE": "U", "NORAD_CAT_ID": 40367, "ELEMENT_SET_NO": 999, "REV_AT_EPOCH": 4009, "BSTAR": 0, "MEAN_MOTION_DOT": -3e-06, "MEAN_MOTION_DDOT": 0}, "tle": {"line1": "1 40367U 14090A   25342.72928623 -.00000300  00000+0  00000+0 0  9991", "line2": "2 40367   5.1581  75.1439 0003085 197.6958 167.0613  1.00265504 40092"}}, "geometry": {"type": "Point", "coordinates": [-35.33654052088956, -4.845551217530329]}}, {"type": "Feature", "properties": {"norad_id": 40732, "name": "METEOSAT-11 (MSG-4)", "group": "weather", "lat": 0.8035259781101103, "lon": -125.53109251508585, "alt_km": 35784.37069791183, "timestamp": "2025-12-09T09:46:47.290459+00:00", "meta": {"OBJECT_NAME": "METEOSAT-11 (MSG-4)", "OBJECT_ID": "2015-034A", "EPOCH": "2025-12-09T03:20:45.360096", "MEAN_MOTION": 1.00266372, "ECCENTRICITY": 9.71e-05, "INCLINATION": 2.7263, "RA_OF_ASC_NODE": 72.0124, "ARG_OF_PERICENTER": 121.7962, "MEAN_ANOMALY": 303.867, "EPHEMERIS_TYPE": 0, "CLASSIFICATION_TYPE": "U", "NORAD_CAT_ID": 40732, "ELEMENT_SET_NO": 999, "REV_AT_EPOCH": 531, "BSTAR": 0, "MEAN_MOTION_DOT": 6.3e-07, "MEAN_MOTION_DDOT": 0}, "tle": {"line1": "1 40732U 15034A   25343.13941389  .00000063  00000+0  00000+0 0  9991", "line2": "2 40732   2.7263  72.0124 0000971 121.7962 303.8670  1.00266372  5312"}}, "geometry": {"type": "Point", "coordinates": [-125.53109251508585, 0.8035259781101103]}}, {"type": "Feature", "properties": {"norad_id": 41105, "name": "ELEKTRO-L 2", "group": "weather", "lat": 4.168922639267852, "lon": -149.2757646391004, "alt_km": 35777.67892385066, "timestamp": "2025-12-09T09:46:47.290471+00:00", "meta": {"OBJECT_NAME": "ELEKTRO-L 2", "OBJECT_ID": "2015-074A", "EPOCH": "2025-12-09T01:31:10.511904", "MEAN_MOTION": 1.00271905, "ECCENTRICITY": 0.0003836, "INCLINATION": 6.2161, "RA_OF_ASC_NODE": 72.8685, "ARG_OF_PERICENTER": 198.9202, "MEAN_ANOMALY": 174.5581, "EPHEMERIS_TYPE": 0, "CLASSIFICATION_TYPE": "U", "NORAD_CAT_ID": 41105, "ELEMENT_SET_NO": 999, "REV_AT_EPOCH": 3660, "BSTAR": 0, "MEAN_MOTION_DOT": -1.16e-06, "MEAN_MOTION_DDOT": 0}, "tle": {"line1": "1 41105U 15074A   25343.06331611 -.00000116  00000+0  00000+0 0  9993", "line2": "2 41105   6.2161  72.8685 0003836 198.9202 174.5581  1.00271905 36607"}}, "geometry": {"type": "Point", "coordinates": [-149.2757646391004, 4.168922639267852]}}, {"type": "Feature", "properties": {"norad_id": 41752, "name": "INSAT-3DR", "group": "weather", "lat": -0.05845813589979295, "lon": -60.81944560524746, "alt_km": 35732.7634765304, "timestamp": "2025-12-09T09:46:47.290484+00:00", "meta": {"OBJECT_NAME": "INSAT-3DR", "OBJECT_ID": "2016-054A", "EPOCH": "2025-12-09T03:39:06.103008", "MEAN_MOTION": 1.00270302, "ECCENTRICITY": 0.0014519, "INCLINATION": 0.0833, "RA_OF_ASC_NODE": 86.6915, "ARG_OF_PERICENTER": 183.4993, "MEAN_ANOMALY": 296.7401, "EPHEMERIS_TYPE": 0, "CLASSIFICATION_TYPE": "U", "NORAD_CAT_ID": 41752, "ELEMENT_SET_NO": 999, "REV_AT_EPOCH": 3391, "BSTAR": 0, "MEAN_MOTION_DOT": -7.5e-07, "MEAN_MOTION_DDOT": 0}, "tle": {"line1": "1 41752U 16054A   25343.15215397 -.00000075  00000+0  00000+0 0  9996", "line2": "2 41752   0.0833  86.6915 0014519 183.4993 296.7401  1.00270302 33917"}}, "geometry": {"type": "Point", "coordinates": [-60.81944560524746, -0.05845813589979295]}}]}